LANDSAT 9               
1 49260U 21088A   26061.75928878  .00000485  00000+0  11761-3 0  9994
2 49260  98.1953 133.6570 0001201  89.9465 270.1871 14.57117278235502
CSG-2                   
1 51444U 22008A   26061.82350891  .00001037  00000+0  13676-3 0  9997
2 51444  97.8854 246.9584 0001439  78.8981 281.2394 14.82152352220834
GAOFEN-12 03            
1 52912U 22069A   26061.83552346  .00000962  00000+0  13440-3 0  9990
2 52912  97.8427 312.3192 0002111 100.1289 260.0162 14.79831415198889
SWOT                    
1 54754U 22173A   26061.80725169  .00000018  00000+0  13789-4 0  9993
2 54754  77.6117 178.9093 0000507 277.5246  82.5848 14.00168356164266
GAOFEN-12 04            
1 57654U 23123A   26061.86481029  .00001603  00000+0  21890-3 0  9993
2 57654  97.9132 341.4276 0001705  78.5231 281.6172 14.79979191136909
PARS 1                  
1 59065U 24039Q   26061.87226488  .00015716  00000+0  35507-3 0  9995
2 59065  97.4737  39.6904 0011570 130.7540 229.4714 15.43205628112233
RESURS-P 4              
1 59371U 24061A   26061.89148539  .00005416  00000+0  17310-3 0  9990
2 59371  97.2646  11.6710 0002770  66.8483 293.3051 15.32854173107480
LEGION 1                
1 59625U 24081A   26061.81140676  .00005980  00000+0  30220-3 0  9991
2 59625  97.5090 140.7691 0005626  42.1250 318.0415 15.17428621101416
LEGION 2                
1 59626U 24081B   26061.78002736  .00005549  00000+0  28804-3 0  9998
2 59626  97.5089 140.8246 0010836   9.4721 350.6714 15.16479913101413
ALOS-4 (DAICHI-4)       
1 60182U 24123A   26060.48702149  .00000099  00000+0  20162-4 0  9990
2 60182  97.9199 159.2056 0001421 100.4469 259.6903 14.79470212 89955
LEGION 3                
1 60452U 24146A   26061.82484844  .00006641  00000+0  35203-3 0  9993
2 60452  44.9995 240.7341 0013802 283.8172  76.1171 15.16051661 85889
LEGION 4                
1 60453U 24146B   26061.82325295  .00006827  00000+0  36127-3 0  9990
2 60453  45.0042 332.5927 0009668  60.8375 299.3470 15.16110814 84738
SENTINEL-2C             
1 60989U 24157A   26061.80891737  .00000162  00000+0  78575-4 0  9993
2 60989  98.5631 138.1193 0000802  97.8328 262.2946 14.30822207 77777
IONOSFERA-M 1           
1 61735U 24199A   26061.78992266  .00000071  00000+0  51524-4 0  9999
2 61735  98.7339 295.9943 0002107  86.2496 273.8923 14.22733668112571
IONOSFERA-M 2           
1 61736U 24199B   26061.82443439  .00000075  00000+0  53101-4 0  9995
2 61736  98.7338 295.9401 0000239  58.0791 302.0410 14.22736017115704
BIOMASS                 
1 63772U 25090A   26061.52999993  .00000393  00000+0  77759-4 0  9994
2 63772  98.0734 250.3819 0001518  84.8272 275.3106 14.67539220 45048
GOSAT-GW (IBUKI GW)     
1 64694U 25141A   26061.82719575  .00001627  00000+0  29520-3 0  9997
2 64694  98.0498   0.9191 0001411  83.9802 276.1564 14.67560855 36249
