[{"OBJECT_NAME":"LANDSAT 9","OBJECT_ID":"2021-088A","EPOCH":"2026-03-02T18:13:22.550592","MEAN_MOTION":14.57117278,"ECCENTRICITY":0.0001201,"INCLINATION":98.1953,"RA_OF_ASC_NODE":133.657,"ARG_OF_PERICENTER":89.9465,"MEAN_ANOMALY":270.1871,"EPHEMERIS_TYPE":0,"CLASSIFICATION_TYPE":"U","NORAD_CAT_ID":49260,"ELEMENT_SET_NO":999,"REV_AT_EPOCH":23550,"BSTAR":0.00011761,"MEAN_MOTION_DOT":4.85e-6,"MEAN_MOTION_DDOT":0},{"OBJECT_NAME":"CSG-2","OBJECT_ID":"2022-008A","EPOCH":"2026-03-02T19:45:51.169824","MEAN_MOTION":14.82152352,"ECCENTRICITY":0.0001439,"INCLINATION":97.8854,"RA_OF_ASC_NODE":246.9584,"ARG_OF_PERICENTER":78.8981,"MEAN_ANOMALY":281.2394,"EPHEMERIS_TYPE":0,"CLASSIFICATION_TYPE":"U","NORAD_CAT_ID":51444,"ELEMENT_SET_NO":999,"REV_AT_EPOCH":22083,"BSTAR":0.00013676,"MEAN_MOTION_DOT":1.037e-5,"MEAN_MOTION_DDOT":0},{"OBJECT_NAME":"GAOFEN-12 03","OBJECT_ID":"2022-069A","EPOCH":"2026-03-02T20:03:09.226944","MEAN_MOTION":14.79831415,"ECCENTRICITY":0.0002111,"INCLINATION":97.8427,"RA_OF_ASC_NODE":312.3192,"ARG_OF_PERICENTER":100.1289,"MEAN_ANOMALY":260.0162,"EPHEMERIS_TYPE":0,"CLASSIFICATION_TYPE":"U","NORAD_CAT_ID":52912,"ELEMENT_SET_NO":999,"REV_AT_EPOCH":19888,"BSTAR":0.0001344,"MEAN_MOTION_DOT":9.62e-6,"MEAN_MOTION_DDOT":0},{"OBJECT_NAME":"SWOT","OBJECT_ID":"2022-173A","EPOCH":"2026-03-02T19:22:26.546016","MEAN_MOTION":14.00168356,"ECCENTRICITY":5.07e-5,"INCLINATION":77.6117,"RA_OF_ASC_NODE":178.9093,"ARG_OF_PERICENTER":277.5246,"MEAN_ANOMALY":82.5848,"EPHEMERIS_TYPE":0,"CLASSIFICATION_TYPE":"U","NORAD_CAT_ID":54754,"ELEMENT_SET_NO":999,"REV_AT_EPOCH":16426,"BSTAR":1.3789e-5,"MEAN_MOTION_DOT":1.8e-7,"MEAN_MOTION_DDOT":0},{"OBJECT_NAME":"GAOFEN-12 04","OBJECT_ID":"2023-123A","EPOCH":"2026-03-02T20:45:19.609056","MEAN_MOTION":14.79979191,"ECCENTRICITY":0.0001705,"INCLINATION":97.9132,"RA_OF_ASC_NODE":341.4276,"ARG_OF_PERICENTER":78.5231,"MEAN_ANOMALY":281.6172,"EPHEMERIS_TYPE":0,"CLASSIFICATION_TYPE":"U","NORAD_CAT_ID":57654,"ELEMENT_SET_NO":999,"REV_AT_EPOCH":13690,"BSTAR":0.0002189,"MEAN_MOTION_DOT":1.603e-5,"MEAN_MOTION_DDOT":0},{"OBJECT_NAME":"PARS 1","OBJECT_ID":"2024-039Q","EPOCH":"2026-03-02T20:56:03.685632","MEAN_MOTION":15.43205628,"ECCENTRICITY":0.001157,"INCLINATION":97.4737,"RA_OF_ASC_NODE":39.6904,"ARG_OF_PERICENTER":130.754,"MEAN_ANOMALY":229.4714,"EPHEMERIS_TYPE":0,"CLASSIFICATION_TYPE":"U","NORAD_CAT_ID":59065,"ELEMENT_SET_NO":999,"REV_AT_EPOCH":11223,"BSTAR":0.00035507,"MEAN_MOTION_DOT":0.00015716,"MEAN_MOTION_DDOT":0},{"OBJECT_NAME":"RESURS-P 4","OBJECT_ID":"2024-061A","EPOCH":"2026-03-02T21:23:44.337696","MEAN_MOTION":15.32854173,"ECCENTRICITY":0.000277,"INCLINATION":97.2646,"RA_OF_ASC_NODE":11.671,"ARG_OF_PERICENTER":66.8483,"MEAN_ANOMALY":293.3051,"EPHEMERIS_TYPE":0,"CLASSIFICATION_TYPE":"U","NORAD_CAT_ID":59371,"ELEMENT_SET_NO":999,"REV_AT_EPOCH":10748,"BSTAR":0.0001731,"MEAN_MOTION_DOT":5.416e-5,"MEAN_MOTION_DDOT":0},{"OBJECT_NAME":"LEGION 1","OBJECT_ID":"2024-081A","EPOCH":"2026-03-02T19:28:25.544064","MEAN_MOTION":15.17428621,"ECCENTRICITY":0.0005626,"INCLINATION":97.509,"RA_OF_ASC_NODE":140.7691,"ARG_OF_PERICENTER":42.125,"MEAN_ANOMALY":318.0415,"EPHEMERIS_TYPE":0,"CLASSIFICATION_TYPE":"U","NORAD_CAT_ID":59625,"ELEMENT_SET_NO":999,"REV_AT_EPOCH":10141,"BSTAR":0.0003022,"MEAN_MOTION_DOT":5.98e-5,"MEAN_MOTION_DDOT":0},{"OBJECT_NAME":"LEGION 2","OBJECT_ID":"2024-081B","EPOCH":"2026-03-02T18:43:14.363904","MEAN_MOTION":15.16479913,"ECCENTRICITY":0.0010836,"INCLINATION":97.5089,"RA_OF_ASC_NODE":140.8246,"ARG_OF_PERICENTER":9.4721,"MEAN_ANOMALY":350.6714,"EPHEMERIS_TYPE":0,"CLASSIFICATION_TYPE":"U","NORAD_CAT_ID":59626,"ELEMENT_SET_NO":999,"REV_AT_EPOCH":10141,"BSTAR":0.00028804,"MEAN_MOTION_DOT":5.549e-5,"MEAN_MOTION_DDOT":0},{"OBJECT_NAME":"ALOS-4 (DAICHI-4)","OBJECT_ID":"2024-123A","EPOCH":"2026-03-01T11:41:18.656736","MEAN_MOTION":14.79470212,"ECCENTRICITY":0.00014216,"INCLINATION":97.9199,"RA_OF_ASC_NODE":159.2056,"ARG_OF_PERICENTER":100.4469,"MEAN_ANOMALY":259.6903,"EPHEMERIS_TYPE":0,"CLASSIFICATION_TYPE":"U","NORAD_CAT_ID":60182,"ELEMENT_SET_NO":999,"REV_AT_EPOCH":8995,"BSTAR":2.0161707e-5,"MEAN_MOTION_DOT":9.9e-7,"MEAN_MOTION_DDOT":0},{"OBJECT_NAME":"LEGION 3","OBJECT_ID":"2024-146A","EPOCH":"2026-03-02T19:47:46.905216","MEAN_MOTION":15.16051661,"ECCENTRICITY":0.0013802,"INCLINATION":44.9995,"RA_OF_ASC_NODE":240.7341,"ARG_OF_PERICENTER":283.8172,"MEAN_ANOMALY":76.1171,"EPHEMERIS_TYPE":0,"CLASSIFICATION_TYPE":"U","NORAD_CAT_ID":60452,"ELEMENT_SET_NO":999,"REV_AT_EPOCH":8588,"BSTAR":0.00035203,"MEAN_MOTION_DOT":6.641e-5,"MEAN_MOTION_DDOT":0},{"OBJECT_NAME":"LEGION 4","OBJECT_ID":"2024-146B","EPOCH":"2026-03-02T19:45:29.054880","MEAN_MOTION":15.16110814,"ECCENTRICITY":0.0009668,"INCLINATION":45.0042,"RA_OF_ASC_NODE":332.5927,"ARG_OF_PERICENTER":60.8375,"MEAN_ANOMALY":299.347,"EPHEMERIS_TYPE":0,"CLASSIFICATION_TYPE":"U","NORAD_CAT_ID":60453,"ELEMENT_SET_NO":999,"REV_AT_EPOCH":8473,"BSTAR":0.00036127,"MEAN_MOTION_DOT":6.827e-5,"MEAN_MOTION_DDOT":0},{"OBJECT_NAME":"SENTINEL-2C","OBJECT_ID":"2024-157A","EPOCH":"2026-03-02T19:24:50.460768","MEAN_MOTION":14.30822207,"ECCENTRICITY":8.02e-5,"INCLINATION":98.5631,"RA_OF_ASC_NODE":138.1193,"ARG_OF_PERICENTER":97.8328,"MEAN_ANOMALY":262.2946,"EPHEMERIS_TYPE":0,"CLASSIFICATION_TYPE":"U","NORAD_CAT_ID":60989,"ELEMENT_SET_NO":999,"REV_AT_EPOCH":7777,"BSTAR":7.8575e-5,"MEAN_MOTION_DOT":1.62e-6,"MEAN_MOTION_DDOT":0},{"OBJECT_NAME":"IONOSFERA-M 1","OBJECT_ID":"2024-199A","EPOCH":"2026-03-02T18:57:29.317824","MEAN_MOTION":14.22733668,"ECCENTRICITY":0.0002107,"INCLINATION":98.7339,"RA_OF_ASC_NODE":295.9943,"ARG_OF_PERICENTER":86.2496,"MEAN_ANOMALY":273.8923,"EPHEMERIS_TYPE":0,"CLASSIFICATION_TYPE":"U","NORAD_CAT_ID":61735,"ELEMENT_SET_NO":999,"REV_AT_EPOCH":11257,"BSTAR":5.1524e-5,"MEAN_MOTION_DOT":7.1e-7,"MEAN_MOTION_DDOT":0},{"OBJECT_NAME":"IONOSFERA-M 2","OBJECT_ID":"2024-199B","EPOCH":"2026-03-02T19:47:11.131296","MEAN_MOTION":14.22736017,"ECCENTRICITY":2.39e-5,"INCLINATION":98.7338,"RA_OF_ASC_NODE":295.9401,"ARG_OF_PERICENTER":58.0791,"MEAN_ANOMALY":302.041,"EPHEMERIS_TYPE":0,"CLASSIFICATION_TYPE":"U","NORAD_CAT_ID":61736,"ELEMENT_SET_NO":999,"REV_AT_EPOCH":11570,"BSTAR":5.3101e-5,"MEAN_MOTION_DOT":7.5e-7,"MEAN_MOTION_DDOT":0},{"OBJECT_NAME":"BIOMASS","OBJECT_ID":"2025-090A","EPOCH":"2026-03-02T12:43:11.993952","MEAN_MOTION":14.6753922,"ECCENTRICITY":0.00015183,"INCLINATION":98.0734,"RA_OF_ASC_NODE":250.3819,"ARG_OF_PERICENTER":84.8272,"MEAN_ANOMALY":275.3106,"EPHEMERIS_TYPE":0,"CLASSIFICATION_TYPE":"U","NORAD_CAT_ID":63772,"ELEMENT_SET_NO":999,"REV_AT_EPOCH":4504,"BSTAR":7.7759436e-5,"MEAN_MOTION_DOT":3.93e-6,"MEAN_MOTION_DDOT":0},{"OBJECT_NAME":"GOSAT-GW (IBUKI GW)","OBJECT_ID":"2025-141A","EPOCH":"2026-03-02T19:51:09.712800","MEAN_MOTION":14.67560855,"ECCENTRICITY":0.0001411,"INCLINATION":98.0498,"RA_OF_ASC_NODE":0.9191,"ARG_OF_PERICENTER":83.9802,"MEAN_ANOMALY":276.1564,"EPHEMERIS_TYPE":0,"CLASSIFICATION_TYPE":"U","NORAD_CAT_ID":64694,"ELEMENT_SET_NO":999,"REV_AT_EPOCH":3624,"BSTAR":0.0002952,"MEAN_MOTION_DOT":1.627e-5,"MEAN_MOTION_DDOT":0}]
